start=new Date('2021-09-19T00:00:00.000Z').valueOf();
sats=[{"MEAN_ELEMENT_THEORY":"SGP4","MEAN_ANOMALY":"281.0861","TLE_LINE1":"1 47170U 20088BA  21261.76979977 -.00000740  00000-0 -30766-4 0  9999","PERIOD":"95.592","TIME_SYSTEM":"UTC","RA_OF_ASC_NODE":"72.0883","EPHEMERIS_TYPE":"0","TLE_LINE2":"2 47170  53.0566  72.0883 0001836  79.0335 281.0861 15.06395242 45720","DECAY_DATE":null,"CLASSIFICATION_TYPE":"U","MEAN_MOTION_DOT":"-0.00000740","SEMIMAJOR_AXIS":"6925.363","REV_AT_EPOCH":"4572","APOAPSIS":"548.500","MEAN_MOTION":"15.06395242","CENTER_NAME":"EARTH","GP_ID":"184974081","FILE":"3118781","NORAD_CAT_ID":"47170","OBJECT_TYPE":"PAYLOAD","OBJECT_ID":"2020-088BA","SITE":"AFETR","EPOCH":"2021-09-18T18:28:30.700128","PERIAPSIS":"545.957","ELEMENT_SET_NO":"999","BSTAR":"-0.00003076600000","MEAN_MOTION_DDOT":"0.0000000000000","ARG_OF_PERICENTER":"79.0335","OBJECT_NAME":"STARLINK-1887","ECCENTRICITY":"0.00018360","REF_FRAME":"TEME","RCS_SIZE":"LARGE","COUNTRY_CODE":"US","LAUNCH_DATE":"2020-11-25","INCLINATION":"53.0566"},{"INCLINATION":"53.0563","LAUNCH_DATE":"2020-11-25","COUNTRY_CODE":"US","RCS_SIZE":"LARGE","REF_FRAME":"TEME","OBJECT_NAME":"STARLINK-1888","ECCENTRICITY":"0.00015700","ELEMENT_SET_NO":"999","MEAN_MOTION_DDOT":"0.0000000000000","BSTAR":"0.00008063200000","ARG_OF_PERICENTER":"101.0960","OBJECT_ID":"2020-088BB","PERIAPSIS":"546.152","SITE":"AFETR","EPOCH":"2021-09-18T17:20:51.019872","NORAD_CAT_ID":"47171","FILE":"3118781","OBJECT_TYPE":"PAYLOAD","MEAN_MOTION":"15.06391740","APOAPSIS":"548.326","CENTER_NAME":"EARTH","GP_ID":"184974832","MEAN_MOTION_DOT":"0.00000919","SEMIMAJOR_AXIS":"6925.374","REV_AT_EPOCH":"4585","DECAY_DATE":null,"CLASSIFICATION_TYPE":"U","EPHEMERIS_TYPE":"0","TLE_LINE2":"2 47171  53.0563  62.2913 0001570 101.0960 259.0205 15.06391740 45858","TIME_SYSTEM":"UTC","PERIOD":"95.593","RA_OF_ASC_NODE":"62.2913","TLE_LINE1":"1 47171U 20088BB  21261.72281273  .00000919  00000-0  80632-4 0  9994","MEAN_ANOMALY":"259.0205","MEAN_ELEMENT_THEORY":"SGP4"},{"MEAN_MOTION_DOT":"0.00231057","REV_AT_EPOCH":"4569","SEMIMAJOR_AXIS":"6819.636","APOAPSIS":"442.434","MEAN_MOTION":"15.41562018","CENTER_NAME":"EARTH","GP_ID":"184973079","TLE_LINE2":"2 47172  53.0582  73.7889 0001369  53.4709 306.6421 15.41562018 45694","EPHEMERIS_TYPE":"0","DECAY_DATE":null,"CLASSIFICATION_TYPE":"U","PERIOD":"93.412","TIME_SYSTEM":"UTC","RA_OF_ASC_NODE":"73.7889","MEAN_ELEMENT_THEORY":"SGP4","MEAN_ANOMALY":"306.6421","TLE_LINE1":"1 47172U 20088BC  21261.73947214  .00231057  00000-0  52641-2 0  9996","INCLINATION":"53.0582","REF_FRAME":"TEME","RCS_SIZE":"LARGE","COUNTRY_CODE":"US","LAUNCH_DATE":"2020-11-25","ELEMENT_SET_NO":"999","BSTAR":"0.00526410000000","MEAN_MOTION_DDOT":"0.0000000000000","ARG_OF_PERICENTER":"53.4709","OBJECT_NAME":"STARLINK-1889","ECCENTRICITY":"0.00013690","NORAD_CAT_ID":"47172","FILE":"3118781","OBJECT_TYPE":"PAYLOAD","OBJECT_ID":"2020-088BC","EPOCH":"2021-09-18T17:44:50.392896","SITE":"AFETR","PERIAPSIS":"440.567"},{"OBJECT_ID":"2020-088BD","PERIAPSIS":"545.833","EPOCH":"2021-09-18T14:01:45.781824","SITE":"AFETR","FILE":"3118781","NORAD_CAT_ID":"47173","OBJECT_TYPE":"PAYLOAD","OBJECT_NAME":"STARLINK-1890","ECCENTRICITY":"0.00019750","ELEMENT_SET_NO":"999","ARG_OF_PERICENTER":"90.4814","MEAN_MOTION_DDOT":"0.0000000000000","BSTAR":"0.00006902000000","LAUNCH_DATE":"2020-11-25","COUNTRY_CODE":"US","RCS_SIZE":"LARGE","REF_FRAME":"TEME","INCLINATION":"53.0551","TLE_LINE1":"1 47173U 20088BD  21261.58455766  .00000747  00000-0  69020-4 0  9997","MEAN_ANOMALY":"269.6402","MEAN_ELEMENT_THEORY":"SGP4","TIME_SYSTEM":"UTC","PERIOD":"95.592","RA_OF_ASC_NODE":"72.9135","DECAY_DATE":null,"CLASSIFICATION_TYPE":"U","TLE_LINE2":"2 47173  53.0551  72.9135 0001975  90.4814 269.6402 15.06404105 45697","EPHEMERIS_TYPE":"0","MEAN_MOTION":"15.06404105","APOAPSIS":"548.569","GP_ID":"184973330","CENTER_NAME":"EARTH","MEAN_MOTION_DOT":"0.00000747","SEMIMAJOR_AXIS":"6925.336","REV_AT_EPOCH":"4569"},{"RCS_SIZE":"LARGE","REF_FRAME":"TEME","LAUNCH_DATE":"2020-11-25","COUNTRY_CODE":"US","INCLINATION":"53.0553","OBJECT_TYPE":"PAYLOAD","NORAD_CAT_ID":"47174","FILE":"3118781","PERIAPSIS":"545.987","SITE":"AFETR","EPOCH":"2021-09-18T19:00:21.666816","OBJECT_ID":"2020-088BE","MEAN_MOTION_DDOT":"0.0000000000000","ARG_OF_PERICENTER":"90.4605","BSTAR":"0.00006060900000","ELEMENT_SET_NO":"999","ECCENTRICITY":"0.00017840","OBJECT_NAME":"STARLINK-1891","EPHEMERIS_TYPE":"0","TLE_LINE2":"2 47174  53.0553  71.9862 0001784  90.4605 269.6588 15.06397135 45725","CLASSIFICATION_TYPE":"U","DECAY_DATE":null,"SEMIMAJOR_AXIS":"6925.357","REV_AT_EPOCH":"4572","MEAN_MOTION_DOT":"0.00000621","GP_ID":"184974582","CENTER_NAME":"EARTH","MEAN_MOTION":"15.06397135","APOAPSIS":"548.458","MEAN_ANOMALY":"269.6588","MEAN_ELEMENT_THEORY":"SGP4","TLE_LINE1":"1 47174U 20088BE  21261.79191744  .00000621  00000-0  60609-4 0  9999","RA_OF_ASC_NODE":"71.9862","TIME_SYSTEM":"UTC","PERIOD":"95.592"},{"TIME_SYSTEM":"UTC","PERIOD":"95.593","RA_OF_ASC_NODE":"52.2731","TLE_LINE1":"1 47175U 20088BF  21261.72372456  .00000950  00000-0  82696-4 0  9999","MEAN_ANOMALY":"273.5084","MEAN_ELEMENT_THEORY":"SGP4","MEAN_MOTION":"15.06394004","APOAPSIS":"548.168","CENTER_NAME":"EARTH","GP_ID":"184974332","MEAN_MOTION_DOT":"0.00000950","SEMIMAJOR_AXIS":"6925.367","REV_AT_EPOCH":"4599","DECAY_DATE":null,"CLASSIFICATION_TYPE":"U","EPHEMERIS_TYPE":"0","TLE_LINE2":"2 47175  53.0562  52.2731 0001352  86.6059 273.5084 15.06394004 45990","OBJECT_NAME":"STARLINK-1895","ECCENTRICITY":"0.00013520","ELEMENT_SET_NO":"999","MEAN_MOTION_DDOT":"0.0000000000000","BSTAR":"0.00008269600000","ARG_OF_PERICENTER":"86.6059","OBJECT_ID":"2020-088BF","PERIAPSIS":"546.296","EPOCH":"2021-09-18T17:22:09.801984","SITE":"AFETR","NORAD_CAT_ID":"47175","FILE":"3118781","OBJECT_TYPE":"PAYLOAD","INCLINATION":"53.0562","LAUNCH_DATE":"2020-11-25","COUNTRY_CODE":"US","RCS_SIZE":"LARGE","REF_FRAME":"TEME"},{"RCS_SIZE":"LARGE","REF_FRAME":"TEME","COUNTRY_CODE":"US","LAUNCH_DATE":"2020-11-25","INCLINATION":"53.0558","NORAD_CAT_ID":"47177","FILE":"3118781","OBJECT_TYPE":"PAYLOAD","OBJECT_ID":"2020-088BH","EPOCH":"2021-09-18T16:59:37.610880","SITE":"AFETR","PERIAPSIS":"546.180","ELEMENT_SET_NO":"999","ARG_OF_PERICENTER":"109.3185","MEAN_MOTION_DDOT":"0.0000000000000","BSTAR":"0.00009796900000","OBJECT_NAME":"STARLINK-1907","ECCENTRICITY":"0.00015440","TLE_LINE2":"2 47177  53.0558  62.3674 0001544 109.3185 250.7971 15.06388192 45859","EPHEMERIS_TYPE":"0","CLASSIFICATION_TYPE":"U","DECAY_DATE":null,"MEAN_MOTION_DOT":"0.00001178","SEMIMAJOR_AXIS":"6925.385","REV_AT_EPOCH":"4585","APOAPSIS":"548.319","MEAN_MOTION":"15.06388192","GP_ID":"184973580","CENTER_NAME":"EARTH","MEAN_ELEMENT_THEORY":"SGP4","MEAN_ANOMALY":"250.7971","TLE_LINE1":"1 47177U 20088BH  21261.70807420  .00001178  00000-0  97969-4 0  9995","PERIOD":"95.593","TIME_SYSTEM":"UTC","RA_OF_ASC_NODE":"62.3674"},{"TLE_LINE1":"1 47178U 20088BJ  21261.75505754 -.00000901  00000-0 -41626-4 0  9990","MEAN_ELEMENT_THEORY":"SGP4","MEAN_ANOMALY":"272.1234","RA_OF_ASC_NODE":"72.1360","PERIOD":"95.593","TIME_SYSTEM":"UTC","DECAY_DATE":null,"CLASSIFICATION_TYPE":"U","EPHEMERIS_TYPE":"0","TLE_LINE2":"2 47178  53.0552  72.1360 0001696  87.9949 272.1234 15.06393239 45715","GP_ID":"184973831","CENTER_NAME":"EARTH","APOAPSIS":"548.409","MEAN_MOTION":"15.06393239","SEMIMAJOR_AXIS":"6925.369","REV_AT_EPOCH":"4571","MEAN_MOTION_DOT":"-0.00000901","EPOCH":"2021-09-18T18:07:16.971456","SITE":"AFETR","PERIAPSIS":"546.060","OBJECT_ID":"2020-088BJ","OBJECT_TYPE":"PAYLOAD","FILE":"3118781","NORAD_CAT_ID":"47178","ECCENTRICITY":"0.00016960","OBJECT_NAME":"STARLINK-1912","ARG_OF_PERICENTER":"87.9949","MEAN_MOTION_DDOT":"0.0000000000000","BSTAR":"-0.00004162600000","ELEMENT_SET_NO":"999","COUNTRY_CODE":"US","LAUNCH_DATE":"2020-11-25","RCS_SIZE":"LARGE","REF_FRAME":"TEME","INCLINATION":"53.0552"},{"TLE_LINE1":"1 47179U 20088BK  21261.80943260  .00000782  00000-0  71392-4 0  9993","MEAN_ELEMENT_THEORY":"SGP4","MEAN_ANOMALY":"270.9514","PERIOD":"95.593","TIME_SYSTEM":"UTC","RA_OF_ASC_NODE":"81.9064","DECAY_DATE":null,"CLASSIFICATION_TYPE":"U","EPHEMERIS_TYPE":"0","TLE_LINE2":"2 47179  53.0538  81.9064 0001685  89.1668 270.9514 15.06391667 45584","APOAPSIS":"548.406","MEAN_MOTION":"15.06391667","CENTER_NAME":"EARTH","GP_ID":"184974082","MEAN_MOTION_DOT":"0.00000782","SEMIMAJOR_AXIS":"6925.374","REV_AT_EPOCH":"4558","OBJECT_ID":"2020-088BK","SITE":"AFETR","EPOCH":"2021-09-18T19:25:34.976640","PERIAPSIS":"546.072","NORAD_CAT_ID":"47179","FILE":"3118781","OBJECT_TYPE":"PAYLOAD","OBJECT_NAME":"STARLINK-1913","ECCENTRICITY":"0.00016850","ELEMENT_SET_NO":"999","MEAN_MOTION_DDOT":"0.0000000000000","BSTAR":"0.00007139200000","ARG_OF_PERICENTER":"89.1668","COUNTRY_CODE":"US","LAUNCH_DATE":"2020-11-25","REF_FRAME":"TEME","RCS_SIZE":"LARGE","INCLINATION":"53.0538"},{"MEAN_ANOMALY":"307.9435","MEAN_ELEMENT_THEORY":"SGP4","TLE_LINE1":"1 47180U 20088BL  21261.74389510  .00473040  00000-0  56733-2 0  9991","TIME_SYSTEM":"UTC","PERIOD":"92.379","RA_OF_ASC_NODE":"71.6520","EPHEMERIS_TYPE":"0","TLE_LINE2":"2 47180  53.0513  71.6520 0000619  52.1632 307.9435 15.58799377 45725","CLASSIFICATION_TYPE":"U","DECAY_DATE":null,"MEAN_MOTION_DOT":"0.00473040","SEMIMAJOR_AXIS":"6769.268","REV_AT_EPOCH":"4572","MEAN_MOTION":"15.58799377","APOAPSIS":"391.552","GP_ID":"184974833","CENTER_NAME":"EARTH","NORAD_CAT_ID":"47180","FILE":"3118781","OBJECT_TYPE":"PAYLOAD","OBJECT_ID":"2020-088BL","PERIAPSIS":"390.714","SITE":"AFETR","EPOCH":"2021-09-18T17:51:12.536640","ELEMENT_SET_NO":"999","MEAN_MOTION_DDOT":"0.0000000000000","BSTAR":"0.00567330000000","ARG_OF_PERICENTER":"52.1632","OBJECT_NAME":"STARLINK-1914","ECCENTRICITY":"0.00006190","RCS_SIZE":"LARGE","REF_FRAME":"TEME","LAUNCH_DATE":"2020-11-25","COUNTRY_CODE":"US","INCLINATION":"53.0513"}];
